{
    "links": {
        "self": "http://www.neowsapp.com/rest/v1/neo/3092276?api_key=iIulBulltgU6a56xZRHN4H3l9WmuAYTsLGpBGhQ2"
    },
    "id": "3092276",
    "neo_reference_id": "3092276",
    "name": "(2000 WH10)",
    "designation": "2000 WH10",
    "nasa_jpl_url": "http://ssd.jpl.nasa.gov/sbdb.cgi?sstr=3092276",
    "absolute_magnitude_h": 21.617,
    "estimated_diameter": {
        "kilometers": {
            "estimated_diameter_min": 0.1262277894,
            "estimated_diameter_max": 0.2822539178
        },
        "meters": {
            "estimated_diameter_min": 126.2277894089,
            "estimated_diameter_max": 282.2539177679
        },
        "miles": {
            "estimated_diameter_min": 0.0784342877,
            "estimated_diameter_max": 0.1753843991
        },
        "feet": {
            "estimated_diameter_min": 414.1331806044,
            "estimated_diameter_max": 926.0299435696
        }
    },
    "is_potentially_hazardous_asteroid": true,
    "close_approach_data": [
        {
            "close_approach_date": "2000-11-25",
            "close_approach_date_full": "2000-Nov-25 04:33",
            "epoch_date_close_approach": 975126780000,
            "relative_velocity": {
                "kilometers_per_second": "14.8133191441",
                "kilometers_per_hour": "53327.9489189368",
                "miles_per_hour": "33135.9135935471"
            },
            "miss_distance": {
                "astronomical": "0.0568897514",
                "lunar": "22.1301132946",
                "kilometers": "8510585.634269518",
                "miles": "5288232.6945266284"
            },
            "orbiting_body": "Earth"
        }
    ],
    "orbital_data": {
        "orbit_id": "12",
        "orbit_determination_date": "2017-04-06 09:16:43",
        "first_observation_date": "2000-11-19",
        "last_observation_date": "2000-11-23",
        "data_arc_in_days": 4,
        "observations_used": 23,
        "orbit_uncertainty": "9",
        "minimum_orbit_intersection": ".0489664",
        "jupiter_tisserand_invariant": "3.080",
        "epoch_osculation": "2451869.5",
        "eccentricity": ".6613388252423401",
        "semi_major_axis": "2.521050820123408",
        "inclination": "13.2646792156845",
        "ascending_node_longitude": "50.3516346360595",
        "orbital_period": "1462.078960086963",
        "perihelion_distance": ".8537820323667553",
        "perihelion_argument": "63.2589973452295",
        "aphelion_distance": "4.188319607880061",
        "perihelion_time": "2451909.664752755450",
        "mean_anomaly": "350.1104445199718",
        "mean_motion": ".246224731924593",
        "equinox": "J2000",
        "orbit_class": {
            "orbit_class_type": "APO",
            "orbit_class_description": "Near-Earth asteroid orbits which cross the Earth’s orbit similar to that of 1862 Apollo",
            "orbit_class_range": "a (semi-major axis) > 1.0 AU; q (perihelion) < 1.017 AU"
        }
    },
    "is_sentry_object": false
}